{
    "links": {
        "self": "http://www.neowsapp.com/rest/v1/neo/3831729?api_key=iIulBulltgU6a56xZRHN4H3l9WmuAYTsLGpBGhQ2"
    },
    "id": "3831729",
    "neo_reference_id": "3831729",
    "name": "(2018 TY4)",
    "designation": "2018 TY4",
    "nasa_jpl_url": "http://ssd.jpl.nasa.gov/sbdb.cgi?sstr=3831729",
    "absolute_magnitude_h": 28.1,
    "estimated_diameter": {
        "kilometers": {
            "estimated_diameter_min": 0.0063760979,
            "estimated_diameter_max": 0.0142573883
        },
        "meters": {
            "estimated_diameter_min": 6.3760978988,
            "estimated_diameter_max": 14.2573883328
        },
        "miles": {
            "estimated_diameter_min": 0.0039619223,
            "estimated_diameter_max": 0.0088591276
        },
        "feet": {
            "estimated_diameter_min": 20.9189570301,
            "estimated_diameter_max": 46.7762099378
        }
    },
    "is_potentially_hazardous_asteroid": false,
    "close_approach_data": [
        {
            "close_approach_date": "2018-10-07",
            "close_approach_date_full": "2018-Oct-07 18:44",
            "epoch_date_close_approach": 1538937840000,
            "relative_velocity": {
                "kilometers_per_second": "11.9751040649",
                "kilometers_per_hour": "43110.3746336965",
                "miles_per_hour": "26787.1102828099"
            },
            "miss_distance": {
                "astronomical": "0.0057393975",
                "lunar": "2.2326256275",
                "kilometers": "858601.641083325",
                "miles": "533510.320566885"
            },
            "orbiting_body": "Moon"
        },
        {
            "close_approach_date": "2018-10-07",
            "close_approach_date_full": "2018-Oct-07 22:37",
            "epoch_date_close_approach": 1538951820000,
            "relative_velocity": {
                "kilometers_per_second": "11.0828010573",
                "kilometers_per_hour": "39898.083806136",
                "miles_per_hour": "24791.1176849849"
            },
            "miss_distance": {
                "astronomical": "0.0038572544",
                "lunar": "1.5004719616",
                "kilometers": "577037.042288128",
                "miles": "358554.1916990464"
            },
            "orbiting_body": "Earth"
        }
    ],
    "orbital_data": {
        "orbit_id": "2",
        "orbit_determination_date": "2018-11-13 06:25:55",
        "first_observation_date": "2018-10-10",
        "last_observation_date": "2018-11-10",
        "data_arc_in_days": 31,
        "observations_used": 23,
        "orbit_uncertainty": "7",
        "minimum_orbit_intersection": ".00100915",
        "jupiter_tisserand_invariant": "3.237",
        "epoch_osculation": "2459000.5",
        "eccentricity": ".6096731470162077",
        "semi_major_axis": "2.410122424166956",
        "inclination": "2.712649940970343",
        "ascending_node_longitude": "12.49718261258556",
        "orbital_period": "1366.649296374265",
        "perihelion_distance": ".9407355011307565",
        "perihelion_argument": "329.0515525905763",
        "aphelion_distance": "3.879509347203155",
        "perihelion_time": "2458374.732738256446",
        "mean_anomaly": "164.8383494034203",
        "mean_motion": ".2634179821810057",
        "equinox": "J2000",
        "orbit_class": {
            "orbit_class_type": "APO",
            "orbit_class_description": "Near-Earth asteroid orbits which cross the Earth’s orbit similar to that of 1862 Apollo",
            "orbit_class_range": "a (semi-major axis) > 1.0 AU; q (perihelion) < 1.017 AU"
        }
    },
    "is_sentry_object": false
}